{
  "type": "FeatureCollection",
  "features": [
    {
      "type": "Feature",
      "properties": {
        "norad_id": 57400,
        "name": "TIANMU-1 08",
        "group": "weather",
        "lat": 70.885727497692,
        "lon": -108.27713968372339,
        "alt_km": 472.1474639114649,
        "timestamp": "2025-12-26T17:24:54.360852+00:00",
        "meta_object_name": "TIANMU-1 08",
        "meta_object_id": "2023-101B",
        "meta_epoch": "2025-12-26T05:56:45.811680",
        "meta_mean_motion": 15.28244147,
        "meta_eccentricity": 0.00068679,
        "meta_inclination": 97.2845,
        "meta_ra_of_asc_node": 49.595,
        "meta_arg_of_pericenter": 45.3763,
        "meta_mean_anomaly": 314.8036,
        "meta_ephemeris_type": 0,
        "meta_classification_type": "U",
        "meta_norad_cat_id": 57400,
        "meta_element_set_no": 999,
        "meta_rev_at_epoch": 13521,
        "meta_bstar": 0.00026338475,
        "meta_mean_motion_dot": 7.18e-05,
        "meta_mean_motion_ddot": 0,
        "tle_line1": "1 57400U 23101B   25360.24775245  .00007180  00000+0  26338-3 0  9995",
        "tle_line2": "2 57400  97.2845  49.5950 0006867  45.3763 314.8036 15.28244147135215"
      },
      "geometry": {
        "type": "Point",
        "coordinates": [
          -108.27713968372339,
          70.885727497692
        ]
      }
    },
    {
      "type": "Feature",
      "properties": {
        "norad_id": 57401,
        "name": "TIANMU-1 09",
        "group": "weather",
        "lat": -2.0615278520096654,
        "lon": -130.69521557611262,
        "alt_km": 487.3793952070728,
        "timestamp": "2025-12-26T17:24:54.360864+00:00",
        "meta_object_name": "TIANMU-1 09",
        "meta_object_id": "2023-101C",
        "meta_epoch": "2025-12-26T07:11:36.337632",
        "meta_mean_motion": 15.28281169,
        "meta_eccentricity": 0.00061344,
        "meta_inclination": 97.2802,
        "meta_ra_of_asc_node": 49.1522,
        "meta_arg_of_pericenter": 46.433,
        "meta_mean_anomaly": 313.7419,
        "meta_ephemeris_type": 0,
        "meta_classification_type": "U",
        "meta_norad_cat_id": 57401,
        "meta_element_set_no": 999,
        "meta_rev_at_epoch": 13522,
        "meta_bstar": 0.00028469254,
        "meta_mean_motion_dot": 7.775e-05,
        "meta_mean_motion_ddot": 0,
        "tle_line1": "1 57401U 23101C   25360.29972613  .00007775  00000+0  28469-3 0  9996",
        "tle_line2": "2 57401  97.2802  49.1522 0006134  46.4330 313.7419 15.28281169135228"
      },
      "geometry": {
        "type": "Point",
        "coordinates": [
          -130.69521557611262,
          -2.0615278520096654
        ]
      }
    },
    {
      "type": "Feature",
      "properties": {
        "norad_id": 57402,
        "name": "TIANMU-1 10",
        "group": "weather",
        "lat": -6.721797916275044,
        "lon": 51.29739780479249,
        "alt_km": 481.3359169760597,
        "timestamp": "2025-12-26T17:24:54.360874+00:00",
        "meta_object_name": "TIANMU-1 10",
        "meta_object_id": "2023-101D",
        "meta_epoch": "2025-12-26T06:26:41.207136",
        "meta_mean_motion": 15.28272967,
        "meta_eccentricity": 0.00078438,
        "meta_inclination": 97.2882,
        "meta_ra_of_asc_node": 49.9859,
        "meta_arg_of_pericenter": 43.6601,
        "meta_mean_anomaly": 316.5259,
        "meta_ephemeris_type": 0,
        "meta_classification_type": "U",
        "meta_norad_cat_id": 57402,
        "meta_element_set_no": 999,
        "meta_rev_at_epoch": 13521,
        "meta_bstar": 0.00027470797,
        "meta_mean_motion_dot": 7.5e-05,
        "meta_mean_motion_ddot": 0,
        "tle_line1": "1 57402U 23101D   25360.26853249  .00007500  00000+0  27471-3 0  9995",
        "tle_line2": "2 57402  97.2882  49.9859 0007843  43.6601 316.5259 15.28272967135214"
      },
      "geometry": {
        "type": "Point",
        "coordinates": [
          51.29739780479249,
          -6.721797916275044
        ]
      }
    },
    {
      "type": "Feature",
      "properties": {
        "norad_id": 57490,
        "name": "FENGYUN 3F",
        "group": "weather",
        "lat": -30.312632782452855,
        "lon": -116.34779810241633,
        "alt_km": 831.6551904426951,
        "timestamp": "2025-12-26T17:24:54.360884+00:00",
        "meta_object_name": "FENGYUN 3F",
        "meta_object_id": "2023-111A",
        "meta_epoch": "2025-12-26T06:16:44.722272",
        "meta_mean_motion": 14.19897093,
        "meta_eccentricity": 8.53e-05,
        "meta_inclination": 98.7065,
        "meta_ra_of_asc_node": 68.3358,
        "meta_arg_of_pericenter": 118.1185,
        "meta_mean_anomaly": 242.0077,
        "meta_ephemeris_type": 0,
        "meta_classification_type": "U",
        "meta_norad_cat_id": 57490,
        "meta_element_set_no": 999,
        "meta_rev_at_epoch": 12432,
        "meta_bstar": 5.7853491e-05,
        "meta_mean_motion_dot": 7.9e-07,
        "meta_mean_motion_ddot": 0,
        "tle_line1": "1 57490U 23111A   25360.26162873  .00000079  00000+0  57853-4 0  9991",
        "tle_line2": "2 57490  98.7065  68.3358 0000853 118.1185 242.0077 14.19897093124321"
      },
      "geometry": {
        "type": "Point",
        "coordinates": [
          -116.34779810241633,
          -30.312632782452855
        ]
      }
    },
    {
      "type": "Feature",
      "properties": {
        "norad_id": 58584,
        "name": "ARKTIKA-M 2",
        "group": "weather",
        "lat": 14.516682085860301,
        "lon": -14.154992783269329,
        "alt_km": 10559.180901712574,
        "timestamp": "2025-12-26T17:24:54.360898+00:00",
        "meta_object_name": "ARKTIKA-M 2",
        "meta_object_id": "2023-198A",
        "meta_epoch": "2025-12-25T18:56:09.299328",
        "meta_mean_motion": 2.00602256,
        "meta_eccentricity": 0.686608,
        "meta_inclination": 63.2255,
        "meta_ra_of_asc_node": 173.4714,
        "meta_arg_of_pericenter": 268.0516,
        "meta_mean_anomaly": 18.8422,
        "meta_ephemeris_type": 0,
        "meta_classification_type": "U",
        "meta_norad_cat_id": 58584,
        "meta_element_set_no": 999,
        "meta_rev_at_epoch": 1484,
        "meta_bstar": 0,
        "meta_mean_motion_dot": 2.31e-06,
        "meta_mean_motion_ddot": 0,
        "tle_line1": "1 58584U 23198A   25359.78899652  .00000231  00000+0  00000+0 0  9995",
        "tle_line2": "2 58584  63.2255 173.4714 6866080 268.0516  18.8422  2.00602256 14849"
      },
      "geometry": {
        "type": "Point",
        "coordinates": [
          -14.154992783269329,
          14.516682085860301
        ]
      }
    },
    {
      "type": "Feature",
      "properties": {
        "norad_id": 58645,
        "name": "TIANMU-1 11",
        "group": "weather",
        "lat": -3.043733206328156,
        "lon": 20.49709093607387,
        "alt_km": 496.438292272298,
        "timestamp": "2025-12-26T17:24:54.360910+00:00",
        "meta_object_name": "TIANMU-1 11",
        "meta_object_id": "2023-205A",
        "meta_epoch": "2025-12-26T07:58:42.167136",
        "meta_mean_motion": 15.24762225,
        "meta_eccentricity": 0.00075832,
        "meta_inclination": 97.36,
        "meta_ra_of_asc_node": 19.7169,
        "meta_arg_of_pericenter": 252.0345,
        "meta_mean_anomaly": 108.0067,
        "meta_ephemeris_type": 0,
        "meta_classification_type": "U",
        "meta_norad_cat_id": 58645,
        "meta_element_set_no": 999,
        "meta_rev_at_epoch": 11116,
        "meta_bstar": 0.00026544614,
        "meta_mean_motion_dot": 6.511e-05,
        "meta_mean_motion_ddot": 0,
        "tle_line1": "1 58645U 23205A   25360.33243249  .00006511  00000+0  26545-3 0  9993",
        "tle_line2": "2 58645  97.3600  19.7169 0007583 252.0345 108.0067 15.24762225111160"
      },
      "geometry": {
        "type": "Point",
        "coordinates": [
          20.49709093607387,
          -3.043733206328156
        ]
      }
    },
    {
      "type": "Feature",
      "properties": {
        "norad_id": 58646,
        "name": "TIANMU-1 12",
        "group": "weather",
        "lat": -23.2859429933841,
        "lon": -163.2843004630093,
        "alt_km": 493.60338454168414,
        "timestamp": "2025-12-26T17:24:54.360920+00:00",
        "meta_object_name": "TIANMU-1 12",
        "meta_object_id": "2023-205B",
        "meta_epoch": "2025-12-26T05:29:58.007904",
        "meta_mean_motion": 15.24647838,
        "meta_eccentricity": 0.00060665,
        "meta_inclination": 97.3587,
        "meta_ra_of_asc_node": 19.4164,
        "meta_arg_of_pericenter": 230.1779,
        "meta_mean_anomaly": 129.8925,
        "meta_ephemeris_type": 0,
        "meta_classification_type": "U",
        "meta_norad_cat_id": 58646,
        "meta_element_set_no": 999,
        "meta_rev_at_epoch": 11113,
        "meta_bstar": 0.0002584134,
        "meta_mean_motion_dot": 6.313e-05,
        "meta_mean_motion_ddot": 0,
        "tle_line1": "1 58646U 23205B   25360.22914361  .00006313  00000+0  25841-3 0  9990",
        "tle_line2": "2 58646  97.3587  19.4164 0006066 230.1779 129.8925 15.24647838111133"
      },
      "geometry": {
        "type": "Point",
        "coordinates": [
          -163.2843004630093,
          -23.2859429933841
        ]
      }
    }
  ]
}